ONEWEB-0497             
1 54116U 22138D   25331.78095843  .00000109  00000+0  23889-3 0  9993
2 54116  87.9206 345.0375 0001884  91.0191 269.1158 13.19727875150244
ONEWEB-0499             
1 54117U 22138E   25331.76438754 -.00000477  00000+0 -12248-2 0  9990
2 54117  87.9207 345.0540 0001985  97.2491 262.8867 13.19723465150252
ONEWEB-0500             
1 54118U 22138F   25331.76674529 -.00000211  00000+0 -56015-3 0  9990
2 54118  87.9203 345.0408 0001771  89.9965 270.1371 13.19725343150269
ONEWEB-0501             
1 54119U 22138G   25331.79676248  .00000088  00000+0  18654-3 0  9991
2 54119  87.9215 345.0323 0002172  92.7289 267.4093 13.19723325150242
ONEWEB-0502             
1 54120U 22138H   25331.55509662  .00000017  00000+0  10021-4 0  9995
2 54120  87.9210 345.0619 0002066  97.0043 263.1325 13.19723641150236
ONEWEB-0503             
1 54121U 22138J   25331.77148282 -.00000160  00000+0 -43288-3 0  9998
2 54121  87.9213 345.0230 0001750 100.8363 259.2967 13.19725408150259
ONEWEB-0504             
1 54122U 22138K   25331.75885002  .00000138  00000+0  31199-3 0  9996
2 54122  87.9208 345.0426 0002039  97.4307 262.7057 13.19727937150260
ONEWEB-0505             
1 54123U 22138L   25331.75569023 -.00000157  00000+0 -42432-3 0  9994
2 54123  87.9213 345.0322 0002341  95.0442 265.0958 13.19725222150241
ONEWEB-0506             
1 54124U 22138M   25331.80623722  .00000031  00000+0  45521-4 0  9990
2 54124  87.9212 345.0193 0002018  93.5244 266.6120 13.19723923150245
ONEWEB-0507             
1 54125U 22138N   25331.75095209  .00000102  00000+0  22207-3 0  9992
2 54125  87.9191 345.0682 0002041  90.8209 269.3158 13.19723497150283
ONEWEB-0508             
1 54126U 22138P   25331.74780231  .00000096  00000+0  20806-3 0  9993
2 54126  87.9202 345.0610 0002185  89.2340 270.9043 13.19724161150263
ONEWEB-0509             
1 54127U 22138Q   25331.79833143 -.00000028  00000+0 -10292-3 0  9995
2 54127  87.9211 345.0200 0001938  91.7772 268.3582 13.19727606150245
ONEWEB-0510             
1 54128U 22138R   25331.69417739  .00000144  00000+0  32224-3 0  9990
2 54128  87.9185 314.6198 0001314  83.7281 276.4002 13.20773511152683
ONEWEB-0511             
1 54129U 22138S   25331.79518186  .00000061  00000+0  12084-3 0  9990
2 54129  87.9212 345.0242 0001824 100.7755 259.3583 13.19723946150277
ONEWEB-0512             
1 54130U 22138T   25331.78728489 -.00000016  00000+0 -72502-4 0  9994
2 54130  87.9196 345.0523 0002211  95.6435 264.4950 13.19724117150243
ONEWEB-0513             
1 54131U 22138U   25331.79948031 -.00000019  00000+0 -78582-4 0  9990
2 54131  87.9219 345.0111 0002245 104.3583 255.7800 13.20320413150141
