[{"OBJECT_NAME":"ONEWEB-0497","OBJECT_ID":"2022-138D","EPOCH":"2025-11-27T18:44:34.808352","MEAN_MOTION":13.19727875,"ECCENTRICITY":0.00018842,"INCLINATION":87.9206,"RA_OF_ASC_NODE":345.0375,"ARG_OF_PERICENTER":91.0191,"MEAN_ANOMALY":269.1158,"EPHEMERIS_TYPE":0,"CLASSIFICATION_TYPE":"U","NORAD_CAT_ID":54116,"ELEMENT_SET_NO":999,"REV_AT_EPOCH":15024,"BSTAR":0.00023888994,"MEAN_MOTION_DOT":1.09e-6,"MEAN_MOTION_DDOT":0},{"OBJECT_NAME":"ONEWEB-0499","OBJECT_ID":"2022-138E","EPOCH":"2025-11-27T18:20:43.083456","MEAN_MOTION":13.19723465,"ECCENTRICITY":0.0001985,"INCLINATION":87.9207,"RA_OF_ASC_NODE":345.054,"ARG_OF_PERICENTER":97.2491,"MEAN_ANOMALY":262.8867,"EPHEMERIS_TYPE":0,"CLASSIFICATION_TYPE":"U","NORAD_CAT_ID":54117,"ELEMENT_SET_NO":999,"REV_AT_EPOCH":15025,"BSTAR":-0.0012247909,"MEAN_MOTION_DOT":-4.77e-6,"MEAN_MOTION_DDOT":0},{"OBJECT_NAME":"ONEWEB-0500","OBJECT_ID":"2022-138F","EPOCH":"2025-11-27T18:24:06.793056","MEAN_MOTION":13.19725343,"ECCENTRICITY":0.00017717,"INCLINATION":87.9203,"RA_OF_ASC_NODE":345.0408,"ARG_OF_PERICENTER":89.9965,"MEAN_ANOMALY":270.1371,"EPHEMERIS_TYPE":0,"CLASSIFICATION_TYPE":"U","NORAD_CAT_ID":54118,"ELEMENT_SET_NO":999,"REV_AT_EPOCH":15026,"BSTAR":-0.00056014848,"MEAN_MOTION_DOT":-2.11e-6,"MEAN_MOTION_DDOT":0},{"OBJECT_NAME":"ONEWEB-0501","OBJECT_ID":"2022-138G","EPOCH":"2025-11-27T19:07:20.278272","MEAN_MOTION":13.19723325,"ECCENTRICITY":0.00021723,"INCLINATION":87.9215,"RA_OF_ASC_NODE":345.0323,"ARG_OF_PERICENTER":92.7289,"MEAN_ANOMALY":267.4093,"EPHEMERIS_TYPE":0,"CLASSIFICATION_TYPE":"U","NORAD_CAT_ID":54119,"ELEMENT_SET_NO":999,"REV_AT_EPOCH":15024,"BSTAR":0.00018654322,"MEAN_MOTION_DOT":8.8e-7,"MEAN_MOTION_DDOT":0},{"OBJECT_NAME":"ONEWEB-0502","OBJECT_ID":"2022-138H","EPOCH":"2025-11-27T13:19:20.347968","MEAN_MOTION":13.19723641,"ECCENTRICITY":0.00020669,"INCLINATION":87.921,"RA_OF_ASC_NODE":345.0619,"ARG_OF_PERICENTER":97.0043,"MEAN_ANOMALY":263.1325,"EPHEMERIS_TYPE":0,"CLASSIFICATION_TYPE":"U","NORAD_CAT_ID":54120,"ELEMENT_SET_NO":999,"REV_AT_EPOCH":15023,"BSTAR":1.0020563e-5,"MEAN_MOTION_DOT":1.7e-7,"MEAN_MOTION_DDOT":0},{"OBJECT_NAME":"ONEWEB-0503","OBJECT_ID":"2022-138J","EPOCH":"2025-11-27T18:30:56.115648","MEAN_MOTION":13.19725408,"ECCENTRICITY":0.000175,"INCLINATION":87.9213,"RA_OF_ASC_NODE":345.023,"ARG_OF_PERICENTER":100.8363,"MEAN_ANOMALY":259.2967,"EPHEMERIS_TYPE":0,"CLASSIFICATION_TYPE":"U","NORAD_CAT_ID":54121,"ELEMENT_SET_NO":999,"REV_AT_EPOCH":15025,"BSTAR":-0.00043288341,"MEAN_MOTION_DOT":-1.6e-6,"MEAN_MOTION_DDOT":0},{"OBJECT_NAME":"ONEWEB-0504","OBJECT_ID":"2022-138K","EPOCH":"2025-11-27T18:12:44.641728","MEAN_MOTION":13.19727937,"ECCENTRICITY":0.0002039,"INCLINATION":87.9208,"RA_OF_ASC_NODE":345.0426,"ARG_OF_PERICENTER":97.4307,"MEAN_ANOMALY":262.7057,"EPHEMERIS_TYPE":0,"CLASSIFICATION_TYPE":"U","NORAD_CAT_ID":54122,"ELEMENT_SET_NO":999,"REV_AT_EPOCH":15026,"BSTAR":0.00031198997,"MEAN_MOTION_DOT":1.38e-6,"MEAN_MOTION_DDOT":0},{"OBJECT_NAME":"ONEWEB-0505","OBJECT_ID":"2022-138L","EPOCH":"2025-11-27T18:08:11.635872","MEAN_MOTION":13.19725222,"ECCENTRICITY":0.00023412,"INCLINATION":87.9213,"RA_OF_ASC_NODE":345.0322,"ARG_OF_PERICENTER":95.0442,"MEAN_ANOMALY":265.0958,"EPHEMERIS_TYPE":0,"CLASSIFICATION_TYPE":"U","NORAD_CAT_ID":54123,"ELEMENT_SET_NO":999,"REV_AT_EPOCH":15024,"BSTAR":-0.00042432359,"MEAN_MOTION_DOT":-1.57e-6,"MEAN_MOTION_DDOT":0},{"OBJECT_NAME":"ONEWEB-0506","OBJECT_ID":"2022-138M","EPOCH":"2025-11-27T19:20:58.895808","MEAN_MOTION":13.19723923,"ECCENTRICITY":0.00020189,"INCLINATION":87.9212,"RA_OF_ASC_NODE":345.0193,"ARG_OF_PERICENTER":93.5244,"MEAN_ANOMALY":266.612,"EPHEMERIS_TYPE":0,"CLASSIFICATION_TYPE":"U","NORAD_CAT_ID":54124,"ELEMENT_SET_NO":999,"REV_AT_EPOCH":15024,"BSTAR":4.5520711e-5,"MEAN_MOTION_DOT":3.1e-7,"MEAN_MOTION_DDOT":0},{"OBJECT_NAME":"ONEWEB-0507","OBJECT_ID":"2022-138N","EPOCH":"2025-11-27T18:01:22.260576","MEAN_MOTION":13.19723497,"ECCENTRICITY":0.00020411,"INCLINATION":87.9191,"RA_OF_ASC_NODE":345.0682,"ARG_OF_PERICENTER":90.8209,"MEAN_ANOMALY":269.3158,"EPHEMERIS_TYPE":0,"CLASSIFICATION_TYPE":"U","NORAD_CAT_ID":54125,"ELEMENT_SET_NO":999,"REV_AT_EPOCH":15028,"BSTAR":0.00022206586,"MEAN_MOTION_DOT":1.02e-6,"MEAN_MOTION_DDOT":0},{"OBJECT_NAME":"ONEWEB-0508","OBJECT_ID":"2022-138P","EPOCH":"2025-11-27T17:56:50.119584","MEAN_MOTION":13.19724161,"ECCENTRICITY":0.00021854,"INCLINATION":87.9202,"RA_OF_ASC_NODE":345.061,"ARG_OF_PERICENTER":89.234,"MEAN_ANOMALY":270.9043,"EPHEMERIS_TYPE":0,"CLASSIFICATION_TYPE":"U","NORAD_CAT_ID":54126,"ELEMENT_SET_NO":999,"REV_AT_EPOCH":15026,"BSTAR":0.00020806027,"MEAN_MOTION_DOT":9.6e-7,"MEAN_MOTION_DDOT":0},{"OBJECT_NAME":"ONEWEB-0509","OBJECT_ID":"2022-138Q","EPOCH":"2025-11-27T19:09:35.835552","MEAN_MOTION":13.19727606,"ECCENTRICITY":0.00019381,"INCLINATION":87.9211,"RA_OF_ASC_NODE":345.02,"ARG_OF_PERICENTER":91.7772,"MEAN_ANOMALY":268.3582,"EPHEMERIS_TYPE":0,"CLASSIFICATION_TYPE":"U","NORAD_CAT_ID":54127,"ELEMENT_SET_NO":999,"REV_AT_EPOCH":15024,"BSTAR":-0.00010292146,"MEAN_MOTION_DOT":-2.8e-7,"MEAN_MOTION_DDOT":0},{"OBJECT_NAME":"ONEWEB-0510","OBJECT_ID":"2022-138R","EPOCH":"2025-11-27T16:39:36.926496","MEAN_MOTION":13.20773511,"ECCENTRICITY":0.00013144,"INCLINATION":87.9185,"RA_OF_ASC_NODE":314.6198,"ARG_OF_PERICENTER":83.7281,"MEAN_ANOMALY":276.4002,"EPHEMERIS_TYPE":0,"CLASSIFICATION_TYPE":"U","NORAD_CAT_ID":54128,"ELEMENT_SET_NO":999,"REV_AT_EPOCH":15268,"BSTAR":0.00032224277,"MEAN_MOTION_DOT":1.44e-6,"MEAN_MOTION_DDOT":0},{"OBJECT_NAME":"ONEWEB-0511","OBJECT_ID":"2022-138S","EPOCH":"2025-11-27T19:05:03.712704","MEAN_MOTION":13.19723946,"ECCENTRICITY":0.00018244,"INCLINATION":87.9212,"RA_OF_ASC_NODE":345.0242,"ARG_OF_PERICENTER":100.7755,"MEAN_ANOMALY":259.3583,"EPHEMERIS_TYPE":0,"CLASSIFICATION_TYPE":"U","NORAD_CAT_ID":54129,"ELEMENT_SET_NO":999,"REV_AT_EPOCH":15027,"BSTAR":0.00012084273,"MEAN_MOTION_DOT":6.1e-7,"MEAN_MOTION_DDOT":0},{"OBJECT_NAME":"ONEWEB-0512","OBJECT_ID":"2022-138T","EPOCH":"2025-11-27T18:53:41.414496","MEAN_MOTION":13.19724117,"ECCENTRICITY":0.00022118,"INCLINATION":87.9196,"RA_OF_ASC_NODE":345.0523,"ARG_OF_PERICENTER":95.6435,"MEAN_ANOMALY":264.495,"EPHEMERIS_TYPE":0,"CLASSIFICATION_TYPE":"U","NORAD_CAT_ID":54130,"ELEMENT_SET_NO":999,"REV_AT_EPOCH":15024,"BSTAR":-7.2502257e-5,"MEAN_MOTION_DOT":-1.6e-7,"MEAN_MOTION_DDOT":0},{"OBJECT_NAME":"ONEWEB-0513","OBJECT_ID":"2022-138U","EPOCH":"2025-11-27T19:11:15.098784","MEAN_MOTION":13.20320413,"ECCENTRICITY":0.00022455,"INCLINATION":87.9219,"RA_OF_ASC_NODE":345.0111,"ARG_OF_PERICENTER":104.3583,"MEAN_ANOMALY":255.78,"EPHEMERIS_TYPE":0,"CLASSIFICATION_TYPE":"U","NORAD_CAT_ID":54131,"ELEMENT_SET_NO":999,"REV_AT_EPOCH":15014,"BSTAR":-7.8581866e-5,"MEAN_MOTION_DOT":-1.9e-7,"MEAN_MOTION_DDOT":0}]
